STARLINK-2661_new
1 18469C 21040AT  21326.17363024 -.00006019  00000-0 -40327-3 0  3269
2 18469  53.0553  32.9692 0001510  59.8035  82.1619 15.06403297    17
STARLINK-2661_old
1 28469C 21040AT  21325.13073515  .00006240  00000-0  41799-3 0  3254
2 28469  53.0554  37.6510 0001437  59.3427 183.7920 15.06402034    18
